DMSP 5D-3 F18 (USA 210) 
1 35951U 09057A   26071.18754177  .00000335  00000+0  19681-3 0  9998
2 35951  98.8966  52.2085 0011276 161.2307 198.9284 14.14837704845872
AEHF-1 (USA 214)        
1 36868U 10039A   26071.14978435  .00000150  00000+0  00000+0 0  9995
2 36868   7.9793  69.3098 0004352 282.2717 262.0934  1.00269372 52683
GSAT0203 (GALILEO 7)    
1 40544U 15017A   26070.25331449 -.00000092  00000+0  00000+0 0  9997
2 40544  56.8190 344.2684 0004937 297.0297  62.9462  1.70475847 67531
GSAT0204 (GALILEO 8)    
1 40545U 15017B   26068.16259097 -.00000099  00000+0  00000+0 0  9990
2 40545  56.8258 344.3432 0004133 288.3156  71.6649  1.70475628 30546
WGS F7 (USA 263)        
1 40746U 15036A   26071.17614272  .00000018  00000+0  00000+0 0  9999
2 40746   0.0130 132.0849 0000338 259.1579  16.9975  1.00269703 38899
GSAT0205 (GALILEO 9)    
1 40889U 15045A   26043.95434207  .00000078  00000+0  00000+0 0  9996
2 40889  53.6403 225.6057 0359599  59.9658 303.5577  1.67410800 64211
GSAT0206 (GALILEO 10)   
1 40890U 15045B   26070.49774172  .00000037  00000+0  00000+0 0  9990
2 40890  54.9789 224.2989 0003567  50.0728 309.9176  1.70473808 65378
GSAT0209 (GALILEO 12)   
1 41174U 15079A   26070.66584696  .00000021  00000+0  00000+0 0  9995
2 41174  55.7642 103.9358 0004961 322.9972  37.0359  1.70474574 63118
GSAT0208 (GALILEO 11)   
1 41175U 15079B   26069.12632083  .00000012  00000+0  00000+0 0  9999
2 41175  55.7615 103.9751 0004348 323.6585  36.3777  1.70474461 63507
GSAT0211 (GALILEO 14)   
1 41549U 16030A   26071.01008659  .00000037  00000+0  00000+0 0  9996
2 41549  55.1288 224.3645 0003471  23.7611 336.2141  1.70473955 61014
GSAT0218 (GALILEO 22)   
1 43058U 17079D   26069.61530519  .00000036  00000+0  00000+0 0  9994
2 43058  55.1037 224.2116 0002008 300.9968  58.9412  1.70474629 51337
GSAT0221 (GALILEO 25)   
1 43564U 18060A   26065.99917537 -.00000103  00000+0  00000+0 0  9999
2 43564  57.2026 344.5430 0005694 308.1098  51.8621  1.70475614 47427
GSAT0222 (GALILEO 26)   
1 43565U 18060B   26065.04549094 -.00000105  00000+0  00000+0 0  9997
2 43565  57.2060 344.5721 0004084 287.9587  72.0183  1.70475258 47453
GSAT0220 (GALILEO 24)   
1 43567U 18060D   26058.44840234 -.00000102  00000+0  00000+0 0  9992
2 43567  57.2075 344.7516 0005301 308.5821  51.3768  1.70475159 47302
AEHF-4 (USA 288)        
1 43651U 18079A   26071.13054425 -.00000272  00000+0  00000+0 0  9994
2 43651   1.4224 355.3010 0064013 359.2105 154.7410  1.00270846 27324
AEHF-5 (USA 292)        
1 44481U 19051A   26071.09093743 -.00000255  00000+0  00000+0 0  9999
2 44481   1.5548 329.1921 0071251   3.4226 322.9206  1.00269920 24285
GSAT0223 (GALILEO 27)   
1 49809U 21116A   26048.03988929 -.00000078  00000+0  00000+0 0  9993
2 49809  57.2005 344.9238 0002865 278.1950 264.6358  1.70475508 26130
GSAT0224 (GALILEO 28)   
1 49810U 21116B   26064.29072237 -.00000105  00000+0  00000+0 0  9998
2 49810  57.1948 344.4822 0001942 295.2728 253.6293  1.70475760 26438
GSAT0225 (GALILEO 29)   
1 59598U 24079A   26069.85822090  .00000014  00000+0  00000+0 0  9998
2 59598  55.0541 103.8268 0002777 260.3454  98.4267  1.70475084 11636
