[ {"OBJECT_NAME": "GSAT0218 (GALILEO 22)", "NORAD_CAT_ID": 43058, "MEAN_MOTION": 1.70474629, "ECCENTRICITY": 0.0002008, "INCLINATION": 55.1037, "RA_OF_ASC_NODE": 224.2116, "ARG_OF_PERICENTER": 300.9968, "MEAN_ANOMALY": 58.9412, "BSTAR": 0.0, "EPOCH": "2026-03-10T14:46:02"}, {"OBJECT_NAME": "GSAT0221 (GALILEO 25)", "NORAD_CAT_ID": 43564, "MEAN_MOTION": 1.70475614, "ECCENTRICITY": 0.0005694, "INCLINATION": 57.2026, "RA_OF_ASC_NODE": 344.543, "ARG_OF_PERICENTER": 308.1098, "MEAN_ANOMALY": 51.8621, "BSTAR": 0.0, "EPOCH": "2026-03-06T23:58:48"}, {"OBJECT_NAME": "GSAT0203 (GALILEO 7)", "NORAD_CAT_ID": 40544, "MEAN_MOTION": 1.70475847, "ECCENTRICITY": 0.0004937, "INCLINATION": 56.819, "RA_OF_ASC_NODE": 344.2684, "ARG_OF_PERICENTER": 297.0297, "MEAN_ANOMALY": 62.9462, "BSTAR": 0.0, "EPOCH": "2026-03-11T06:04:46"}, {"OBJECT_NAME": "GSAT0222 (GALILEO 26)", "NORAD_CAT_ID": 43565, "MEAN_MOTION": 1.70475258, "ECCENTRICITY": 0.0004084, "INCLINATION": 57.206, "RA_OF_ASC_NODE": 344.5721, "ARG_OF_PERICENTER": 287.9587, "MEAN_ANOMALY": 72.0183, "BSTAR": 0.0, "EPOCH": "2026-03-06T01:05:30"}, {"OBJECT_NAME": "GSAT0204 (GALILEO 8)", "NORAD_CAT_ID": 40545, "MEAN_MOTION": 1.70475628, "ECCENTRICITY": 0.0004133, "INCLINATION": 56.8258, "RA_OF_ASC_NODE": 344.3432, "ARG_OF_PERICENTER": 288.3156, "MEAN_ANOMALY": 71.6649, "BSTAR": 0.0, "EPOCH": "2026-03-09T03:54:07"}, {"OBJECT_NAME": "GSAT0205 (GALILEO 9)", "NORAD_CAT_ID": 40889, "MEAN_MOTION": 1.674108, "ECCENTRICITY": 0.0359599, "INCLINATION": 53.6403, "RA_OF_ASC_NODE": 225.6057, "ARG_OF_PERICENTER": 59.9658, "MEAN_ANOMALY": 303.5577, "BSTAR": 0.0, "EPOCH": "2026-02-12T22:54:15"}, {"OBJECT_NAME": "GSAT0220 (GALILEO 24)", "NORAD_CAT_ID": 43567, "MEAN_MOTION": 1.70475159, "ECCENTRICITY": 0.0005301, "INCLINATION": 57.2075, "RA_OF_ASC_NODE": 344.7516, "ARG_OF_PERICENTER": 308.5821, "MEAN_ANOMALY": 51.3768, "BSTAR": 0.0, "EPOCH": "2026-02-27T10:45:41"}, {"OBJECT_NAME": "GSAT0206 (GALILEO 10)", "NORAD_CAT_ID": 40890, "MEAN_MOTION": 1.70473808, "ECCENTRICITY": 0.0003567, "INCLINATION": 54.9789, "RA_OF_ASC_NODE": 224.2989, "ARG_OF_PERICENTER": 50.0728, "MEAN_ANOMALY": 309.9176, "BSTAR": 0.0, "EPOCH": "2026-03-11T11:56:44"}, {"OBJECT_NAME": "GSAT0223 (GALILEO 27)", "NORAD_CAT_ID": 49809, "MEAN_MOTION": 1.70475508, "ECCENTRICITY": 0.0002865, "INCLINATION": 57.2005, "RA_OF_ASC_NODE": 344.9238, "ARG_OF_PERICENTER": 278.195, "MEAN_ANOMALY": 264.6358, "BSTAR": 0.0, "EPOCH": "2026-02-17T00:57:26"}, {"OBJECT_NAME": "GSAT0209 (GALILEO 12)", "NORAD_CAT_ID": 41174, "MEAN_MOTION": 1.70474574, "ECCENTRICITY": 0.0004961, "INCLINATION": 55.7642, "RA_OF_ASC_NODE": 103.9358, "ARG_OF_PERICENTER": 322.9972, "MEAN_ANOMALY": 37.0359, "BSTAR": 0.0, "EPOCH": "2026-03-11T15:58:49"}, {"OBJECT_NAME": "GSAT0208 (GALILEO 11)", "NORAD_CAT_ID": 41175, "MEAN_MOTION": 1.70474461, "ECCENTRICITY": 0.0004348, "INCLINATION": 55.7615, "RA_OF_ASC_NODE": 103.9751, "ARG_OF_PERICENTER": 323.6585, "MEAN_ANOMALY": 36.3777, "BSTAR": 0.0, "EPOCH": "2026-03-10T03:01:54"}, {"OBJECT_NAME": "GSAT0224 (GALILEO 28)", "NORAD_CAT_ID": 49810, "MEAN_MOTION": 1.7047576, "ECCENTRICITY": 0.0001942, "INCLINATION": 57.1948, "RA_OF_ASC_NODE": 344.4822, "ARG_OF_PERICENTER": 295.2728, "MEAN_ANOMALY": 253.6293, "BSTAR": 0.0, "EPOCH": "2026-03-05T06:58:38"}, {"OBJECT_NAME": "GSAT0211 (GALILEO 14)", "NORAD_CAT_ID": 41549, "MEAN_MOTION": 1.70473955, "ECCENTRICITY": 0.0003471, "INCLINATION": 55.1288, "RA_OF_ASC_NODE": 224.3645, "ARG_OF_PERICENTER": 23.7611, "MEAN_ANOMALY": 336.2141, "BSTAR": 0.0, "EPOCH": "2026-03-12T00:14:31"}, {"OBJECT_NAME": "GSAT0225 (GALILEO 29)", "NORAD_CAT_ID": 59598, "MEAN_MOTION": 1.70475084, "ECCENTRICITY": 0.0002777, "INCLINATION": 55.0541, "RA_OF_ASC_NODE": 103.8268, "ARG_OF_PERICENTER": 260.3454, "MEAN_ANOMALY": 98.4267, "BSTAR": 0.0, "EPOCH": "2026-03-10T20:35:50"}, {"OBJECT_NAME": "DMSP 5D-3 F18 (USA 210)", "NORAD_CAT_ID": 35951, "MEAN_MOTION": 14.14837704, "ECCENTRICITY": 0.0011276, "INCLINATION": 98.8966, "RA_OF_ASC_NODE": 52.2085, "ARG_OF_PERICENTER": 161.2307, "MEAN_ANOMALY": 198.9284, "BSTAR": 0.00019681, "EPOCH": "2026-03-12T04:30:03"}, {"OBJECT_NAME": "AEHF-1 (USA 214)", "NORAD_CAT_ID": 36868, "MEAN_MOTION": 1.00269372, "ECCENTRICITY": 0.0004352, "INCLINATION": 7.9793, "RA_OF_ASC_NODE": 69.3098, "ARG_OF_PERICENTER": 282.2717, "MEAN_ANOMALY": 262.0934, "BSTAR": 0.0, "EPOCH": "2026-03-12T03:35:41"}, {"OBJECT_NAME": "AEHF-4 (USA 288)", "NORAD_CAT_ID": 43651, "MEAN_MOTION": 1.00270846, "ECCENTRICITY": 0.0064013, "INCLINATION": 1.4224, "RA_OF_ASC_NODE": 355.301, "ARG_OF_PERICENTER": 359.2105, "MEAN_ANOMALY": 154.741, "BSTAR": 0.0, "EPOCH": "2026-03-12T03:07:59"}, {"OBJECT_NAME": "AEHF-5 (USA 292)", "NORAD_CAT_ID": 44481, "MEAN_MOTION": 1.0026992, "ECCENTRICITY": 0.0071251, "INCLINATION": 1.5548, "RA_OF_ASC_NODE": 329.1921, "ARG_OF_PERICENTER": 3.4226, "MEAN_ANOMALY": 322.9206, "BSTAR": 0.0, "EPOCH": "2026-03-12T02:10:56"}, {"OBJECT_NAME": "WGS F7 (USA 263)", "NORAD_CAT_ID": 40746, "MEAN_MOTION": 1.00269703, "ECCENTRICITY": 3.38e-05, "INCLINATION": 0.013, "RA_OF_ASC_NODE": 132.0849, "ARG_OF_PERICENTER": 259.1579, "MEAN_ANOMALY": 16.9975, "BSTAR": 0.0, "EPOCH": "2026-03-12T04:13:38"}]